{"fetched_at":"2026-07-19T07:05:06.500Z","source":"https://celestrak.org/NORAD/elements/gp.php?NAME=EROS&FORMAT=JSON","constellation":"eros","records":[{"OBJECT_NAME":"EROS C3","OBJECT_ID":"2022-179A","EPOCH":"2026-07-18T21:09:40.377312","CLASSIFICATION_TYPE":"U","MEAN_MOTION":15.11052919,"ECCENTRICITY":0.0008032,"INCLINATION":139.3348,"RA_OF_ASC_NODE":185.9546,"ARG_OF_PERICENTER":205.6517,"MEAN_ANOMALY":154.3893,"EPHEMERIS_TYPE":0,"NORAD_CAT_ID":54880,"ELEMENT_SET_NO":999,"REV_AT_EPOCH":19712,"BSTAR":0.00014501,"MEAN_MOTION_DOT":0.0000271,"MEAN_MOTION_DDOT":0}]}
