EROS C3                 
1 54880U 22179A   26199.88171734  .00002710  00000+0  14501-3 0  9995
2 54880 139.3348 185.9546 0008032 205.6517 154.3893 15.11052919197122
